<?xml version="1.0" encoding="UTF-8"?>
<ndm xmlns:xsi="http://www.w3.org/2001/XMLSchema-instance" xsi:noNamespaceSchemaLocation="https://sanaregistry.org/r/ndmxml_unqualified/ndmxml-2.0.0-master-2.0.xsd">
<omm id="CCSDS_OMM_VERS" version="2.0">
<header><CREATION_DATE/><ORIGINATOR/></header><body><segment><metadata><OBJECT_NAME>GLOBALSTAR M057</OBJECT_NAME><OBJECT_ID>1999-058A</OBJECT_ID><CENTER_NAME>EARTH</CENTER_NAME><REF_FRAME>TEME</REF_FRAME><TIME_SYSTEM>UTC</TIME_SYSTEM><MEAN_ELEMENT_THEORY>SGP4</MEAN_ELEMENT_THEORY></metadata><data><meanElements><EPOCH>2025-10-04T19:01:30.111168</EPOCH><MEAN_MOTION>12.24827338</MEAN_MOTION><ECCENTRICITY>.0002175</ECCENTRICITY><INCLINATION>52.0009</INCLINATION><RA_OF_ASC_NODE>37.1403</RA_OF_ASC_NODE><ARG_OF_PERICENTER>223.7835</ARG_OF_PERICENTER><MEAN_ANOMALY>136.2842</MEAN_ANOMALY></meanElements><tleParameters><EPHEMERIS_TYPE>0</EPHEMERIS_TYPE><CLASSIFICATION_TYPE>U</CLASSIFICATION_TYPE><NORAD_CAT_ID>25943</NORAD_CAT_ID><ELEMENT_SET_NO>999</ELEMENT_SET_NO><REV_AT_EPOCH>18036</REV_AT_EPOCH><BSTAR>.81319E-4</BSTAR><MEAN_MOTION_DOT>-.84E-6</MEAN_MOTION_DOT><MEAN_MOTION_DDOT>0</MEAN_MOTION_DDOT></tleParameters></data></segment></body></omm>
<omm id="CCSDS_OMM_VERS" version="2.0">
<header><CREATION_DATE/><ORIGINATOR/></header><body><segment><metadata><OBJECT_NAME>GLOBALSTAR M059</OBJECT_NAME><OBJECT_ID>1999-058B</OBJECT_ID><CENTER_NAME>EARTH</CENTER_NAME><REF_FRAME>TEME</REF_FRAME><TIME_SYSTEM>UTC</TIME_SYSTEM><MEAN_ELEMENT_THEORY>SGP4</MEAN_ELEMENT_THEORY></metadata><data><meanElements><EPOCH>2025-10-04T17:38:18.358080</EPOCH><MEAN_MOTION>11.99988623</MEAN_MOTION><ECCENTRICITY>.0000291</ECCENTRICITY><INCLINATION>52.0009</INCLINATION><RA_OF_ASC_NODE>270.8110</RA_OF_ASC_NODE><ARG_OF_PERICENTER>115.6239</ARG_OF_PERICENTER><MEAN_ANOMALY>55.2376</MEAN_ANOMALY></meanElements><tleParameters><EPHEMERIS_TYPE>0</EPHEMERIS_TYPE><CLASSIFICATION_TYPE>U</CLASSIFICATION_TYPE><NORAD_CAT_ID>25944</NORAD_CAT_ID><ELEMENT_SET_NO>999</ELEMENT_SET_NO><REV_AT_EPOCH>58719</REV_AT_EPOCH><BSTAR>.2225E-3</BSTAR><MEAN_MOTION_DOT>-.68E-6</MEAN_MOTION_DOT><MEAN_MOTION_DDOT>0</MEAN_MOTION_DDOT></tleParameters></data></segment></body></omm>
<omm id="CCSDS_OMM_VERS" version="2.0">
<header><CREATION_DATE/><ORIGINATOR/></header><body><segment><metadata><OBJECT_NAME>GLOBALSTAR M056</OBJECT_NAME><OBJECT_ID>1999-058C</OBJECT_ID><CENTER_NAME>EARTH</CENTER_NAME><REF_FRAME>TEME</REF_FRAME><TIME_SYSTEM>UTC</TIME_SYSTEM><MEAN_ELEMENT_THEORY>SGP4</MEAN_ELEMENT_THEORY></metadata><data><meanElements><EPOCH>2025-10-04T17:06:40.252032</EPOCH><MEAN_MOTION>12.04779244</MEAN_MOTION><ECCENTRICITY>.0001169</ECCENTRICITY><INCLINATION>51.9953</INCLINATION><RA_OF_ASC_NODE>270.0214</RA_OF_ASC_NODE><ARG_OF_PERICENTER>41.3959</ARG_OF_PERICENTER><MEAN_ANOMALY>130.0220</MEAN_ANOMALY></meanElements><tleParameters><EPHEMERIS_TYPE>0</EPHEMERIS_TYPE><CLASSIFICATION_TYPE>U</CLASSIFICATION_TYPE><NORAD_CAT_ID>25945</NORAD_CAT_ID><ELEMENT_SET_NO>999</ELEMENT_SET_NO><REV_AT_EPOCH>17582</REV_AT_EPOCH><BSTAR>-.11345E-4</BSTAR><MEAN_MOTION_DOT>-.88E-6</MEAN_MOTION_DOT><MEAN_MOTION_DDOT>0</MEAN_MOTION_DDOT></tleParameters></data></segment></body></omm>
<omm id="CCSDS_OMM_VERS" version="2.0">
<header><CREATION_DATE/><ORIGINATOR/></header><body><segment><metadata><OBJECT_NAME>GLOBALSTAR M031</OBJECT_NAME><OBJECT_ID>1999-058D</OBJECT_ID><CENTER_NAME>EARTH</CENTER_NAME><REF_FRAME>TEME</REF_FRAME><TIME_SYSTEM>UTC</TIME_SYSTEM><MEAN_ELEMENT_THEORY>SGP4</MEAN_ELEMENT_THEORY></metadata><data><meanElements><EPOCH>2025-10-04T19:44:59.837856</EPOCH><MEAN_MOTION>12.16040409</MEAN_MOTION><ECCENTRICITY>.0002195</ECCENTRICITY><INCLINATION>51.9945</INCLINATION><RA_OF_ASC_NODE>155.4837</RA_OF_ASC_NODE><ARG_OF_PERICENTER>53.6184</ARG_OF_PERICENTER><MEAN_ANOMALY>45.6390</MEAN_ANOMALY></meanElements><tleParameters><EPHEMERIS_TYPE>0</EPHEMERIS_TYPE><CLASSIFICATION_TYPE>U</CLASSIFICATION_TYPE><NORAD_CAT_ID>25946</NORAD_CAT_ID><ELEMENT_SET_NO>999</ELEMENT_SET_NO><REV_AT_EPOCH>17788</REV_AT_EPOCH><BSTAR>.10945E-2</BSTAR><MEAN_MOTION_DOT>.17E-6</MEAN_MOTION_DOT><MEAN_MOTION_DDOT>0</MEAN_MOTION_DDOT></tleParameters></data></segment></body></omm>
<omm id="CCSDS_OMM_VERS" version="2.0">
<header><CREATION_DATE/><ORIGINATOR/></header><body><segment><metadata><OBJECT_NAME>GLOBALSTAR M039</OBJECT_NAME><OBJECT_ID>1999-062A</OBJECT_ID><CENTER_NAME>EARTH</CENTER_NAME><REF_FRAME>TEME</REF_FRAME><TIME_SYSTEM>UTC</TIME_SYSTEM><MEAN_ELEMENT_THEORY>SGP4</MEAN_ELEMENT_THEORY></metadata><data><meanElements><EPOCH>2025-10-04T18:00:05.056128</EPOCH><MEAN_MOTION>12.62333166</MEAN_MOTION><ECCENTRICITY>.0002402</ECCENTRICITY><INCLINATION>51.9846</INCLINATION><RA_OF_ASC_NODE>295.0088</RA_OF_ASC_NODE><ARG_OF_PERICENTER>226.4878</ARG_OF_PERICENTER><MEAN_ANOMALY>133.5789</MEAN_ANOMALY></meanElements><tleParameters><EPHEMERIS_TYPE>0</EPHEMERIS_TYPE><CLASSIFICATION_TYPE>U</CLASSIFICATION_TYPE><NORAD_CAT_ID>25961</NORAD_CAT_ID><ELEMENT_SET_NO>999</ELEMENT_SET_NO><REV_AT_EPOCH>19405</REV_AT_EPOCH><BSTAR>.16726E-3</BSTAR><MEAN_MOTION_DOT>-.74E-6</MEAN_MOTION_DOT><MEAN_MOTION_DDOT>0</MEAN_MOTION_DDOT></tleParameters></data></segment></body></omm>
<omm id="CCSDS_OMM_VERS" version="2.0">
<header><CREATION_DATE/><ORIGINATOR/></header><body><segment><metadata><OBJECT_NAME>GLOBALSTAR M034</OBJECT_NAME><OBJECT_ID>1999-062B</OBJECT_ID><CENTER_NAME>EARTH</CENTER_NAME><REF_FRAME>TEME</REF_FRAME><TIME_SYSTEM>UTC</TIME_SYSTEM><MEAN_ELEMENT_THEORY>SGP4</MEAN_ELEMENT_THEORY></metadata><data><meanElements><EPOCH>2025-10-04T21:24:10.827072</EPOCH><MEAN_MOTION>11.79448877</MEAN_MOTION><ECCENTRICITY>.0013263</ECCENTRICITY><INCLINATION>51.9860</INCLINATION><RA_OF_ASC_NODE>86.2149</RA_OF_ASC_NODE><ARG_OF_PERICENTER>247.0152</ARG_OF_PERICENTER><MEAN_ANOMALY>280.9884</MEAN_ANOMALY></meanElements><tleParameters><EPHEMERIS_TYPE>0</EPHEMERIS_TYPE><CLASSIFICATION_TYPE>U</CLASSIFICATION_TYPE><NORAD_CAT_ID>25962</NORAD_CAT_ID><ELEMENT_SET_NO>999</ELEMENT_SET_NO><REV_AT_EPOCH>15133</REV_AT_EPOCH><BSTAR>.45175E-3</BSTAR><MEAN_MOTION_DOT>-.52E-6</MEAN_MOTION_DOT><MEAN_MOTION_DDOT>0</MEAN_MOTION_DDOT></tleParameters></data></segment></body></omm>
<omm id="CCSDS_OMM_VERS" version="2.0">
<header><CREATION_DATE/><ORIGINATOR/></header><body><segment><metadata><OBJECT_NAME>GLOBALSTAR M029</OBJECT_NAME><OBJECT_ID>1999-062C</OBJECT_ID><CENTER_NAME>EARTH</CENTER_NAME><REF_FRAME>TEME</REF_FRAME><TIME_SYSTEM>UTC</TIME_SYSTEM><MEAN_ELEMENT_THEORY>SGP4</MEAN_ELEMENT_THEORY></metadata><data><meanElements><EPOCH>2025-10-03T04:00:31.291776</EPOCH><MEAN_MOTION>11.99901731</MEAN_MOTION><ECCENTRICITY>.00025891</ECCENTRICITY><INCLINATION>51.9789</INCLINATION><RA_OF_ASC_NODE>162.9954</RA_OF_ASC_NODE><ARG_OF_PERICENTER>350.5721</ARG_OF_PERICENTER><MEAN_ANOMALY>172.3509</MEAN_ANOMALY></meanElements><tleParameters><EPHEMERIS_TYPE>0</EPHEMERIS_TYPE><CLASSIFICATION_TYPE>U</CLASSIFICATION_TYPE><NORAD_CAT_ID>25963</NORAD_CAT_ID><ELEMENT_SET_NO>999</ELEMENT_SET_NO><REV_AT_EPOCH>18208</REV_AT_EPOCH><BSTAR>.31979487E-3</BSTAR><MEAN_MOTION_DOT>-.6E-6</MEAN_MOTION_DOT><MEAN_MOTION_DDOT>0</MEAN_MOTION_DDOT></tleParameters></data></segment></body></omm>
<omm id="CCSDS_OMM_VERS" version="2.0">
<header><CREATION_DATE/><ORIGINATOR/></header><body><segment><metadata><OBJECT_NAME>GLOBALSTAR M061</OBJECT_NAME><OBJECT_ID>1999-062D</OBJECT_ID><CENTER_NAME>EARTH</CENTER_NAME><REF_FRAME>TEME</REF_FRAME><TIME_SYSTEM>UTC</TIME_SYSTEM><MEAN_ELEMENT_THEORY>SGP4</MEAN_ELEMENT_THEORY></metadata><data><meanElements><EPOCH>2025-10-04T17:18:55.293120</EPOCH><MEAN_MOTION>11.76777117</MEAN_MOTION><ECCENTRICITY>.0005805</ECCENTRICITY><INCLINATION>51.9787</INCLINATION><RA_OF_ASC_NODE>272.1510</RA_OF_ASC_NODE><ARG_OF_PERICENTER>169.3032</ARG_OF_PERICENTER><MEAN_ANOMALY>1.6499</MEAN_ANOMALY></meanElements><tleParameters><EPHEMERIS_TYPE>0</EPHEMERIS_TYPE><CLASSIFICATION_TYPE>U</CLASSIFICATION_TYPE><NORAD_CAT_ID>25964</NORAD_CAT_ID><ELEMENT_SET_NO>999</ELEMENT_SET_NO><REV_AT_EPOCH>13407</REV_AT_EPOCH><BSTAR>.85237E-4</BSTAR><MEAN_MOTION_DOT>-.75E-6</MEAN_MOTION_DOT><MEAN_MOTION_DDOT>0</MEAN_MOTION_DDOT></tleParameters></data></segment></body></omm>

</ndm>
