GLOBALSTAR M057         
1 25943U 99058A   25277.79270962 -.00000084  00000+0  81319-4 0  9997
2 25943  52.0009  37.1403 0002175 223.7835 136.2842 12.24827338180368
GLOBALSTAR M059         
1 25944U 99058B   25277.73493470 -.00000068  00000+0  22250-3 0  9993
2 25944  52.0009 270.8110 0000291 115.6239  55.2376 11.99988623587194
GLOBALSTAR M056         
1 25945U 99058C   25277.71296588 -.00000088  00000+0 -11345-4 0  9990
2 25945  51.9953 270.0214 0001169  41.3959 130.0220 12.04779244175824
GLOBALSTAR M031         
1 25946U 99058D   25277.82291479  .00000017  00000+0  10945-2 0  9990
2 25946  51.9945 155.4837 0002195  53.6184  45.6390 12.16040409177883
GLOBALSTAR M039         
1 25961U 99062A   25277.75005852 -.00000074  00000+0  16726-3 0  9990
2 25961  51.9846 295.0088 0002402 226.4878 133.5789 12.62333166194053
GLOBALSTAR M034         
1 25962U 99062B   25277.89179198 -.00000052  00000+0  45175-3 0  9997
2 25962  51.9860  86.2149 0013263 247.0152 280.9884 11.79448877151339
GLOBALSTAR M029         
1 25963U 99062C   25276.16702884 -.00000060  00000+0  31979-3 0  9997
2 25963  51.9789 162.9954 0002589 350.5721 172.3509 11.99901731182086
GLOBALSTAR M061         
1 25964U 99062D   25277.72147330 -.00000075  00000+0  85237-4 0  9993
2 25964  51.9787 272.1510 0005805 169.3032   1.6499 11.76777117134074
